{
  "norad_id": 62689,
  "name": "LOGSATS",
  "history": [
    {
      "epoch": "2026-03-28T17:47:14.810496Z",
      "apogee_km": 315.5596607010002,
      "perigee_km": 304.99437438233053,
      "latitude_deg": 2.8230207966966245e-05,
      "longitude_deg": 86.21474559158337,
      "height_km": 314.55229248459443,
      "semi_major_axis_km": 6688.414017541665,
      "eccentricity": 0.00078982,
      "inclination_deg": 97.3852,
      "raan_deg": 179.1837,
      "arg_perigee_deg": 258.1349,
      "mean_anomaly_deg": 101.9037,
      "mean_motion_rev_day": 15.87150241
    },
    {
      "epoch": "2026-03-29T04:22:38.683488Z",
      "apogee_km": 313.6351234184385,
      "perigee_km": 303.13327322435543,
      "latitude_deg": 4.842129382851611e-05,
      "longitude_deg": -72.59074221620367,
      "height_km": 312.84059706210616,
      "semi_major_axis_km": 6686.521198321397,
      "eccentricity": 0.0007853,
      "inclination_deg": 97.3855,
      "raan_deg": 179.6626,
      "arg_perigee_deg": 256.0441,
      "mean_anomaly_deg": 103.9958,
      "mean_motion_rev_day": 15.87824224
    },
    {
      "epoch": "2026-03-30T04:33:56.911392Z",
      "apogee_km": 309.4597610193523,
      "perigee_km": 298.43165172075896,
      "latitude_deg": -4.2296760339450577e-05,
      "longitude_deg": -75.31616164060804,
      "height_km": 308.2200478702989,
      "semi_major_axis_km": 6682.082706370055,
      "eccentricity": 0.0008252,
      "inclination_deg": 97.3849,
      "raan_deg": 180.7565,
      "arg_perigee_deg": 258.6833,
      "mean_anomaly_deg": 101.3512,
      "mean_motion_rev_day": 15.89406526
    },
    {
      "epoch": "2026-03-30T12:07:11.371008Z",
      "apogee_km": 308.4148242597066,
      "perigee_km": 297.0076767228875,
      "latitude_deg": 3.1037273133150335e-05,
      "longitude_deg": 171.40504843543977,
      "height_km": 306.99630446631033,
      "semi_major_axis_km": 6680.848250491296,
      "eccentricity": 0.00085372,
      "inclination_deg": 97.3852,
      "raan_deg": 181.0982,
      "arg_perigee_deg": 258.9615,
      "mean_anomaly_deg": 101.0698,
      "mean_motion_rev_day": 15.89847071
    },
    {
      "epoch": "2026-03-30T18:09:41.187744Z",
      "apogee_km": 307.2558487285569,
      "perigee_km": 295.81116846594523,
      "latitude_deg": 4.732791657984811e-05,
      "longitude_deg": 80.80638988427914,
      "height_km": 305.7274950395974,
      "semi_major_axis_km": 6679.670508597251,
      "eccentricity": 0.00085668,
      "inclination_deg": 97.385,
      "raan_deg": 181.3719,
      "arg_perigee_deg": 259.9314,
      "mean_anomaly_deg": 100.0993,
      "mean_motion_rev_day": 15.90267566
    },
    {
      "epoch": "2026-03-31T12:16:37.486272Z",
      "apogee_km": 304.0801987638115,
      "perigee_km": 292.3582530837075,
      "latitude_deg": -9.106086564350612e-05,
      "longitude_deg": 169.14904868104028,
      "height_km": 302.4279051352433,
      "semi_major_axis_km": 6676.356225923759,
      "eccentricity": 0.00087787,
      "inclination_deg": 97.3839,
      "raan_deg": 182.1931,
      "arg_perigee_deg": 260.043,
      "mean_anomaly_deg": 99.9852,
      "mean_motion_rev_day": 15.91451876
    },
    {
      "epoch": "2026-04-01T12:24:35.249760Z",
      "apogee_km": 299.4311343784457,
      "perigee_km": 287.6969465884431,
      "latitude_deg": -2.9473811365525453e-05,
      "longitude_deg": 167.26366559916147,
      "height_km": 297.6031507425769,
      "semi_major_axis_km": 6671.701040483444,
      "eccentricity": 0.0008794,
      "inclination_deg": 97.3819,
      "raan_deg": 183.2895,
      "arg_perigee_deg": 261.753,
      "mean_anomaly_deg": 98.2747,
      "mean_motion_rev_day": 15.93117822
    },
    {
      "epoch": "2026-04-02T17:01:49.581696Z",
      "apogee_km": 292.0299318481466,
      "perigee_km": 280.5033126311928,
      "latitude_deg": 7.624677999737371e-05,
      "longitude_deg": 98.08092843866217,
      "height_km": 289.85870960420516,
      "semi_major_axis_km": 6664.403622239669,
      "eccentricity": 0.00086479,
      "inclination_deg": 97.3782,
      "raan_deg": 184.5919,
      "arg_perigee_deg": 266.1091,
      "mean_anomaly_deg": 93.9197,
      "mean_motion_rev_day": 15.95735197
    },
    {
      "epoch": "2026-04-03T18:35:20.691456Z",
      "apogee_km": 283.44545373411256,
      "perigee_km": 270.98663283708174,
      "latitude_deg": -5.596414457059133e-05,
      "longitude_deg": 74.82146549285595,
      "height_km": 280.6125583961725,
      "semi_major_axis_km": 6655.353043285597,
      "eccentricity": 0.000936,
      "inclination_deg": 97.3774,
      "raan_deg": 185.7617,
      "arg_perigee_deg": 268.2433,
      "mean_anomaly_deg": 91.7772,
      "mean_motion_rev_day": 15.98991351
    },
    {
      "epoch": "2026-04-04T18:35:36.092256Z",
      "apogee_km": 274.04763967527106,
      "perigee_km": 260.98228791445035,
      "latitude_deg": -3.917992936850441e-06,
      "longitude_deg": 74.87596737115484,
      "height_km": 270.70804545266554,
      "semi_major_axis_km": 6645.65196379486,
      "eccentricity": 0.000983,
      "inclination_deg": 97.3768,
      "raan_deg": 186.8662,
      "arg_perigee_deg": 270.151,
      "mean_anomaly_deg": 89.8643,
      "mean_motion_rev_day": 16.02493852
    },
    {
      "epoch": "2026-04-05T12:33:48.108672Z",
      "apogee_km": 267.41468542722214,
      "perigee_km": 253.3606631507664,
      "latitude_deg": -2.8980139523232625e-05,
      "longitude_deg": 165.41619918150386,
      "height_km": 263.41249421885504,
      "semi_major_axis_km": 6638.524674288994,
      "eccentricity": 0.00105852,
      "inclination_deg": 97.3755,
      "raan_deg": 187.6945,
      "arg_perigee_deg": 271.5414,
      "mean_anomaly_deg": 88.4654,
      "mean_motion_rev_day": 16.05075262
    },
    {
      "epoch": "2026-04-05T18:32:47.659776Z",
      "apogee_km": 264.8879193363391,
      "perigee_km": 250.52662516233704,
      "latitude_deg": 6.82540575193234e-05,
      "longitude_deg": 75.69983497399808,
      "height_km": 260.63737984748667,
      "semi_major_axis_km": 6635.844272249337,
      "eccentricity": 0.0010821,
      "inclination_deg": 97.3745,
      "raan_deg": 187.972,
      "arg_perigee_deg": 272.2751,
      "mean_anomaly_deg": 87.7292,
      "mean_motion_rev_day": 16.06047862
    },
    {
      "epoch": "2026-04-06T05:00:29.339424Z",
      "apogee_km": 260.2683355857207,
      "perigee_km": 245.68823716095994,
      "latitude_deg": -4.637419240848314e-05,
      "longitude_deg": -81.16865812838742,
      "height_km": 255.90537232737373,
      "semi_major_axis_km": 6631.1152863733405,
      "eccentricity": 0.00109937,
      "inclination_deg": 97.3741,
      "raan_deg": 188.4568,
      "arg_perigee_deg": 272.2829,
      "mean_anomaly_deg": 87.7194,
      "mean_motion_rev_day": 16.077662
    },
    {
      "epoch": "2026-04-07T04:52:14.043648Z",
      "apogee_km": 246.55348436853274,
      "perigee_km": 231.00981310915358,
      "latitude_deg": 1.5161615666658594e-05,
      "longitude_deg": -78.9729308823596,
      "height_km": 241.35036843733613,
      "semi_major_axis_km": 6616.918648738842,
      "eccentricity": 0.00117454,
      "inclination_deg": 97.3697,
      "raan_deg": 189.5688,
      "arg_perigee_deg": 274.8397,
      "mean_anomaly_deg": 85.1547,
      "mean_motion_rev_day": 16.12943182
    },
    {
      "epoch": "2026-04-07T21:13:21.237312Z",
      "apogee_km": 232.0851705045052,
      "perigee_km": 215.42199866900773,
      "latitude_deg": -7.350068045374275e-05,
      "longitude_deg": 35.843452213065326,
      "height_km": 226.11069426700857,
      "semi_major_axis_km": 6601.890584586756,
      "eccentricity": 0.001262,
      "inclination_deg": 97.3668,
      "raan_deg": 190.3367,
      "arg_perigee_deg": 276.0256,
      "mean_anomaly_deg": 83.9593,
      "mean_motion_rev_day": 16.18453695
    }
  ]
}